INTELSAT 20 (IS-20)     
1 38740U 12043A   17283.75545570 -.00000042  00000-0  00000+0 0  9997
2 38740   0.0122 181.9104 0002499 356.2590 181.8585  1.00272548 19035
HYLAS 2                 
1 38741U 12043B   17284.85649193  .00000133  00000-0  00000-0 0  9997
2 38741   0.0196 215.0752 0001907 349.7819 155.1338  1.00271879 18977
INTELSAT 21 (IS-21)     
1 38749U 12045A   17285.10313416 -.00000306  00000-0  00000+0 0  9994
2 38749   0.0218 206.7032 0002376   5.1885 148.0939  1.00268782 18859
ASTRA 2F                
1 38778U 12051A   17284.86424797  .00000129  00000-0  00000-0 0  9993
2 38778   0.0668 237.7619 0004943 341.1588 141.0681  1.00274276  9379
GSAT-10                 
1 38779U 12051B   17284.71251277 -.00000185  00000-0  00000+0 0  9991
2 38779   0.0520  96.3089 0000807 122.9632 140.7467  1.00270259 18507
INTELSAT 23 (IS-23)     
1 38867U 12057A   17284.09200788 -.00000303  00000-0  00000+0 0  9999
2 38867   0.0165 238.5643 0001942 326.8108 154.6415  1.00271421 18318
BEIDOU G6               
1 38953U 12059A   17284.77896686 -.00000195  00000-0  00000-0 0  9990
2 38953   1.8902  79.8879 0006307 163.5274 141.5747  1.00270383 18251
LUCH 5B                 
1 38977U 12061A   17285.17549431 -.00000149  00000-0  00000+0 0  9995
2 38977   3.7706  73.7335 0001787 127.0971 227.0768  1.00272011 18383
YAMAL 300K              
1 38978U 12061B   17285.35202052  .00000049  00000-0  00000+0 0  9999
2 38978   0.0167 201.7840 0001192  40.3435  88.6752  1.00268703 18085
STAR ONE C3             
1 38991U 12062A   17284.82202150 -.00000270  00000-0  00000-0 0  9993
2 38991   0.0856  80.2694 0002556 135.1888  26.0770  1.00273014 17987
EUTELSAT 21B            
1 38992U 12062B   17284.88258474  .00000110  00000-0  00000-0 0  9992
2 38992   0.0704  23.3452 0002142 188.4705 148.1955  1.00275179 18065
ECHOSTAR 16             
1 39008U 12065A   17284.11554251 -.00000300  00000-0  00000+0 0  9993
2 39008   0.0190 198.9924 0001842   3.8395 157.1861  1.00271544 18010
CHINASAT 12 (ZX 12)     
1 39017U 12067A   17284.96010584 -.00000228  00000-0  00000-0 0  9994
2 39017   0.0117 266.4513 0002879 307.7677 239.6636  1.00270180 17711
EUTELSAT 70B            
1 39020U 12069A   17284.74705383 -.00000065  00000-0  00000-0 0  9993
2 39020   0.0642   1.4979 0002853 195.2935 163.2235  1.00274712 17712
YAMAL 402               
1 39022U 12070A   17284.13185043  .00000067  00000-0  10000-3 0  9990
2 39022   0.0075 271.9614 0003221 296.5982 273.7527  1.00273699 17805
SKYNET 5D               
1 39034U 12075A   17284.95397678  .00000077  00000-0  00000-0 0  9994
2 39034   0.0758 354.7715 0004095 212.3931 209.7725  1.00274465 17382
MEXSAT 3                
1 39035U 12075B   17284.26318628 -.00000045  00000-0  00000+0 0  9992
2 39035   0.0083 170.9279 0002415  40.3006 148.7830  1.00271019 17687
TDRS 11                 
1 39070U 13004A   17285.32874864  .00000069  00000-0  00000+0 0  9996
2 39070   5.2430 328.5653 0009719 284.6747  75.0774  1.00267957 17208
AMAZONAS 3              
1 39078U 13006A   17284.11409514 -.00000301  00000-0  00000-0 0  9999
2 39078   0.0268 216.3124 0005654   6.7670 136.9025  1.00268984 17170
AZERSPACE 1             
1 39079U 13006B   17284.81502114  .00000112  00000-0  00000+0 0  9995
2 39079   0.0177 173.1141 0001977  61.5682 125.3236  1.00272671 17146
EUTELSAT 117 WEST A     
1 39122U 13012A   17285.26599009 -.00000035  00000-0  00000+0 0  9995
2 39122   0.0468  87.3346 0002648 121.8095 150.8643  1.00271538 16689
ANIK G1                 
1 39127U 13014A   17285.23963808 -.00000096  00000-0  00000+0 0  9998
2 39127   0.0341 270.0501 0002098 316.5935 133.3621  1.00271091 16476
CHINASAT 11 (ZX 11)     
1 39157U 13020A   17285.02147336 -.00000313  00000-0  00000+0 0  9997
2 39157   0.0108 212.9008 0002803  58.8956 214.7661  1.00271804 16368
EUTELSAT 7B             
1 39163U 13022A   17283.92576907  .00000030  00000-0  00000+0 0  9998
2 39163   0.0223  20.0764 0002013 305.2321  34.6784  1.00268726 16193
SES-6                   
1 39172U 13026A   17284.05731015 -.00000279  00000-0  00000+0 0  9996
2 39172   0.0358 321.8687 0002602 261.1423 136.9950  1.00271859 15938
IRNSS-1A                
1 39199U 13034A   17284.10599307  .00000102  00000-0  00000-0 0  9991
2 39199  29.0064 113.0336 0019986 176.2878 183.8143  1.00271482 15574
ALPHASAT                
1 39215U 13038A   17283.95353105  .00000120  00000-0  00000-0 0  9990
2 39215   1.7830  27.9493 0001988 175.1892 184.7251  1.00269651 12252
INSAT-3D                
1 39216U 13038B   17284.71482915 -.00000177  00000-0  00000-0 0  9991
2 39216   0.0707  91.0392 0001360 160.0974 108.8734  1.00271072 15320
EUTELSAT 25B            
1 39233U 13044A   17284.87189164  .00000122  00000-0  00000+0 0  9992
2 39233   0.0486  20.1816 0001918 209.8740 129.9518  1.00272508 15115
GSAT-7                  
1 39234U 13044B   17284.73745868 -.00000097  00000-0  00000-0 0  9990
2 39234   0.0206 224.7418 0004281  23.9382 111.2990  1.00271117 13569
AMOS-4                  
1 39237U 13045A   17284.76232245 -.00000013  00000-0  00000+0 0  9994
2 39237   0.0319 173.9550 0001501  49.6302 136.4029  1.00269636 15105
ASTRA 2E                
1 39285U 13056A   17284.86355627  .00000129  00000-0  00000-0 0  9998
2 39285   0.0656 340.3956 0002415 215.1052 164.5158  1.00272330 14670
SIRIUS FM-6             
1 39360U 13058A   17284.26698189 -.00000036  00000-0  00000-0 0  9999
2 39360   0.0199 253.0389 0000473 218.7938 248.1981  1.00271682 14379
RADUGA-1M 3             
1 39375U 13062A   17284.55813154 -.00000060  00000-0  00000-0 0  9990
2 39375   0.0081 211.3449 0001562  22.1477  57.8292  1.00273554 14330
SES-8                   
1 39460U 13071A   17284.67930848 -.00000290  00000-0  00000-0 0  9993
2 39460   0.0224 257.1973 0001676 292.0959 170.7284  1.00272245 12726
INMARSAT 5-F1           
1 39476U 13073A   17285.37549628  .00000006  00000-0  00000+0 0  9995
2 39476   0.0189 203.2588 0000623  91.1944 284.4665  1.00270334 14141
TKSAT-1 (TUPAC KATARI)  
1 39481U 13075A   17284.82688069 -.00000215  00000-0  00000+0 0  9998
2 39481   0.0171  78.8200 0001376 131.6615  20.6082  1.00269454 14050
EXPRESS-AM5             
1 39487U 13077A   17284.87338032 -.00000301  00000-0  00000+0 0  9999
2 39487   0.0263 312.7255 0002023 351.3624 171.0333  1.00271334 14587
GSAT-14                 
1 39498U 14001A   17284.73746084 -.00000098  00000-0  00000-0 0  9998
2 39498   0.0197 156.3358 0002582   8.0597 195.6369  1.00270507 13666
THAICOM 6               
1 39500U 14002A   17285.08035539 -.00000142  00000-0  00000+0 0  9997
2 39500   0.0699 118.1133 0003590  64.0642 306.1053  1.00270836 13739
TDRS 12                 
1 39504U 14004A   17284.98941488 -.00000294  00000-0  00000+0 0  9998
2 39504   5.8532 335.9681 0003644 292.9870  66.8641  1.00265118 13666
ABS-2                   
1 39508U 14006A   17284.73483210 -.00000107  00000-0  00000-0 0  9995
2 39508   0.0472  60.5192 0002699 151.5686 147.9203  1.00272094 13523
ATHENA-FIDUS            
1 39509U 14006B   17284.83773446  .00000133  00000-0  00000-0 0  9998
2 39509   0.0246 275.8274 0001601 312.8069 131.3762  1.00273018 13281
TURKSAT 4A              
1 39522U 14007A   17284.82609757  .00000125  00000-0  00000-0 0  9997
2 39522   0.0402 267.8010 0004266 328.4906 123.6921  1.00271948 13205
EXPRESS-AT1             
1 39612U 14010A   17285.16351421  .00000056  00000-0  00000+0 0  9993
2 39612   0.0266 320.4366 0000371 329.0716 206.3163  1.00273360 13265
EXPRESS-AT2             
1 39613U 14010B   17284.87338032 -.00000302  00000-0  00000-0 0  9990
2 39613   0.0255 307.5408 0000394 337.8609 189.5293  1.00271331 13093
AMAZONAS 4A             
1 39616U 14011A   17285.11132712 -.00000304  00000-0  00000+0 0  9990
2 39616   0.0130  66.2186 0001432 101.5935 192.1913  1.00270983 13082
ASTRA 5B                
1 39617U 14011B   17284.91854843  .00000134  00000-0  00000-0 0  9995
2 39617   0.0467 325.4238 0003518 239.1875 178.2719  1.00271147 12881
IRNSS-1B                
1 39635U 14017A   17283.60688277  .00000065  00000-0  00000-0 0  9995
2 39635  28.8763 293.0761 0021598 190.3900 169.5444  1.00277648 12794
LUCH 5V                 
1 39727U 14023A   17284.93973324 -.00000293  00000-0  00000-0 0  9995
2 39727   2.4839 299.0451 0002538 310.1886 204.4992  1.00274086530737
KAZSAT-3                
1 39728U 14023B   17284.78037853  .00000039  00000-0  00000-0 0  9994
2 39728   0.0363  58.9095 0000737 230.1354  70.9715  1.00273201 10651
EUTELSAT 3B             
1 39773U 14030A   17284.94563274 -.00000001  00000-0  00000+0 0  9990
2 39773   0.0922 319.3037 0004371 246.7088 158.2554  1.00272196 12438
ASIASAT 8               
1 40107U 14046A   17283.95604049 -.00000052  00000-0  00000+0 0  9992
2 40107   0.0278 101.3281 0002199 110.8829 147.8022  1.00270949 11702
ASIASAT 6               
1 40141U 14052A   17284.88010604 -.00000383  00000-0  00000-0 0  9996
2 40141   0.0289 270.9970 0000599 302.6158 243.8301  1.00273376 11263
OPTUS 10                
1 40146U 14054A   17284.48814237 -.00000094  00000-0  00000+0 0  9991
2 40146   0.0720 324.0809 0001343 236.2407 159.6981  1.00271853 11331
MEASAT-3B               
1 40147U 14054B   17284.68899211 -.00000262  00000-0  00000-0 0  9997
2 40147   0.0447  51.5138 0001306 193.2089 115.2885  1.00270073 11112
LUCH (OLYMP)            
1 40258U 14058A   17284.07758464  .00000137  00000-0  00000-0 0  9991
2 40258   0.0164 250.7206 0000553  48.7619 141.0691  1.00273909 11142
HIMAWARI-8              
1 40267U 14060A   17284.55288236 -.00000296  00000-0  00000+0 0  9998
2 40267   0.0173 214.8366 0001360  17.6486 127.5024  1.00269319 11075
IRNSS-1C                
1 40269U 14061A   17284.39371060 -.00000184  00000-0  00000-0 0  9998
2 40269   2.8101 245.1237 0021682   7.2516 352.5531  1.00274377 10892
